CCSDS_OMM_VERS = 2.0
CREATION_DATE  = 
ORIGINATOR     = 

OBJECT_NAME    = STARLINK-37106
OBJECT_ID      = 2026-053N
CENTER_NAME    = EARTH
REF_FRAME      = TEME
TIME_SYSTEM    = UTC
MEAN_ELEMENT_THEORY = SGP/SGP4

EPOCH          = 2026-03-25T22:00:00.999936
MEAN_MOTION    = 15.89549851
ECCENTRICITY   = .00016212
INCLINATION    = 97.2783
RA_OF_ASC_NODE = 319.9385
ARG_OF_PERICENTER = 106.8749
MEAN_ANOMALY   = 146.7554

EPHEMERIS_TYPE = 0
CLASSIFICATION_TYPE = U
NORAD_CAT_ID   = 68219
ELEMENT_SET_NO = 999
REV_AT_EPOCH   = 262
BSTAR          = -.73874649E-2
MEAN_MOTION_DOT = -.2125929E-1
MEAN_MOTION_DDOT = .11929806E-2

CCSDS_OMM_VERS = 2.0
CREATION_DATE  = 
ORIGINATOR     = 

OBJECT_NAME    = STARLINK-37030
OBJECT_ID      = 2026-053P
CENTER_NAME    = EARTH
REF_FRAME      = TEME
TIME_SYSTEM    = UTC
MEAN_ELEMENT_THEORY = SGP/SGP4

EPOCH          = 2026-03-25T22:00:00.999936
MEAN_MOTION    = 15.89847587
ECCENTRICITY   = .00015789
INCLINATION    = 97.2775
RA_OF_ASC_NODE = 319.9409
ARG_OF_PERICENTER = 101.8805
MEAN_ANOMALY   = 158.0404

EPHEMERIS_TYPE = 0
CLASSIFICATION_TYPE = U
NORAD_CAT_ID   = 68220
ELEMENT_SET_NO = 999
REV_AT_EPOCH   = 262
BSTAR          = -.72811559E-2
MEAN_MOTION_DOT = -.2126751E-1
MEAN_MOTION_DDOT = .11974594E-2

CCSDS_OMM_VERS = 2.0
CREATION_DATE  = 
ORIGINATOR     = 

OBJECT_NAME    = STARLINK-37012
OBJECT_ID      = 2026-053Q
CENTER_NAME    = EARTH
REF_FRAME      = TEME
TIME_SYSTEM    = UTC
MEAN_ELEMENT_THEORY = SGP/SGP4

EPOCH          = 2026-03-25T22:00:00.999936
MEAN_MOTION    = 15.89706028
ECCENTRICITY   = .0001584
INCLINATION    = 97.2775
RA_OF_ASC_NODE = 319.9391
ARG_OF_PERICENTER = 101.0026
MEAN_ANOMALY   = 155.7357

EPHEMERIS_TYPE = 0
CLASSIFICATION_TYPE = U
NORAD_CAT_ID   = 68221
ELEMENT_SET_NO = 999
REV_AT_EPOCH   = 262
BSTAR          = -.73476117E-2
MEAN_MOTION_DOT = -.213096E-1
MEAN_MOTION_DDOT = .12002193E-2

CCSDS_OMM_VERS = 2.0
CREATION_DATE  = 
ORIGINATOR     = 

OBJECT_NAME    = STARLINK-37110
OBJECT_ID      = 2026-053R
CENTER_NAME    = EARTH
REF_FRAME      = TEME
TIME_SYSTEM    = UTC
MEAN_ELEMENT_THEORY = SGP/SGP4

EPOCH          = 2026-03-25T22:00:00.999936
MEAN_MOTION    = 15.90001791
ECCENTRICITY   = .00015476
INCLINATION    = 97.2776
RA_OF_ASC_NODE = 319.9417
ARG_OF_PERICENTER = 102.0955
MEAN_ANOMALY   = 160.8793

EPHEMERIS_TYPE = 0
CLASSIFICATION_TYPE = U
NORAD_CAT_ID   = 68222
ELEMENT_SET_NO = 999
REV_AT_EPOCH   = 262
BSTAR          = -.72242842E-2
MEAN_MOTION_DOT = -.2126512E-1
MEAN_MOTION_DDOT = .11990835E-2

CCSDS_OMM_VERS = 2.0
CREATION_DATE  = 
ORIGINATOR     = 

OBJECT_NAME    = STARLINK-37025
OBJECT_ID      = 2026-053S
CENTER_NAME    = EARTH
REF_FRAME      = TEME
TIME_SYSTEM    = UTC
MEAN_ELEMENT_THEORY = SGP/SGP4

EPOCH          = 2026-03-25T22:00:00.999936
MEAN_MOTION    = 15.90144674
ECCENTRICITY   = .00016059
INCLINATION    = 97.2770
RA_OF_ASC_NODE = 319.9430
ARG_OF_PERICENTER = 106.3639
MEAN_ANOMALY   = 159.7938

EPHEMERIS_TYPE = 0
CLASSIFICATION_TYPE = U
NORAD_CAT_ID   = 68223
ELEMENT_SET_NO = 999
REV_AT_EPOCH   = 262
BSTAR          = -.71752377E-2
MEAN_MOTION_DOT = -.2127294E-1
MEAN_MOTION_DDOT = .12016645E-2

CCSDS_OMM_VERS = 2.0
CREATION_DATE  = 
ORIGINATOR     = 

OBJECT_NAME    = STARLINK-36977
OBJECT_ID      = 2026-053T
CENTER_NAME    = EARTH
REF_FRAME      = TEME
TIME_SYSTEM    = UTC
MEAN_ELEMENT_THEORY = SGP/SGP4

EPOCH          = 2026-03-25T22:00:00.999936
MEAN_MOTION    = 15.90305446
ECCENTRICITY   = .00015893
INCLINATION    = 97.2765
RA_OF_ASC_NODE = 319.9436
ARG_OF_PERICENTER = 108.1298
MEAN_ANOMALY   = 160.9229

EPHEMERIS_TYPE = 0
CLASSIFICATION_TYPE = U
NORAD_CAT_ID   = 68224
ELEMENT_SET_NO = 999
REV_AT_EPOCH   = 251
BSTAR          = -.71055154E-2
MEAN_MOTION_DOT = -.2123766E-1
MEAN_MOTION_DDOT = .11998661E-2

CCSDS_OMM_VERS = 2.0
CREATION_DATE  = 
ORIGINATOR     = 

OBJECT_NAME    = STARLINK-36960
OBJECT_ID      = 2026-053U
CENTER_NAME    = EARTH
REF_FRAME      = TEME
TIME_SYSTEM    = UTC
MEAN_ELEMENT_THEORY = SGP/SGP4

EPOCH          = 2026-03-25T22:00:00.999936
MEAN_MOTION    = 15.90463935
ECCENTRICITY   = .00015907
INCLINATION    = 97.2765
RA_OF_ASC_NODE = 319.9455
ARG_OF_PERICENTER = 104.0008
MEAN_ANOMALY   = 167.8988

EPHEMERIS_TYPE = 0
CLASSIFICATION_TYPE = U
NORAD_CAT_ID   = 68225
ELEMENT_SET_NO = 999
REV_AT_EPOCH   = 260
BSTAR          = -.70134106E-2
MEAN_MOTION_DOT = -.2113169E-1
MEAN_MOTION_DDOT = .11905003E-2

CCSDS_OMM_VERS = 2.0
CREATION_DATE  = 
ORIGINATOR     = 

OBJECT_NAME    = STARLINK-37038
OBJECT_ID      = 2026-053V
CENTER_NAME    = EARTH
REF_FRAME      = TEME
TIME_SYSTEM    = UTC
MEAN_ELEMENT_THEORY = SGP/SGP4

EPOCH          = 2026-03-25T22:00:00.999936
MEAN_MOTION    = 15.90750646
ECCENTRICITY   = .00014692
INCLINATION    = 97.2767
RA_OF_ASC_NODE = 319.9482
ARG_OF_PERICENTER = 104.8093
MEAN_ANOMALY   = 173.2397

EPHEMERIS_TYPE = 0
CLASSIFICATION_TYPE = U
NORAD_CAT_ID   = 68226
ELEMENT_SET_NO = 999
REV_AT_EPOCH   = 260
BSTAR          = -.69146072E-2
MEAN_MOTION_DOT = -.2113757E-1
MEAN_MOTION_DDOT = .11946364E-2

CCSDS_OMM_VERS = 2.0
CREATION_DATE  = 
ORIGINATOR     = 

OBJECT_NAME    = STARLINK-37083
OBJECT_ID      = 2026-053W
CENTER_NAME    = EARTH
REF_FRAME      = TEME
TIME_SYSTEM    = UTC
MEAN_ELEMENT_THEORY = SGP/SGP4

EPOCH          = 2026-03-25T22:00:00.999936
MEAN_MOTION    = 15.90606322
ECCENTRICITY   = .00015546
INCLINATION    = 97.2769
RA_OF_ASC_NODE = 319.9473
ARG_OF_PERICENTER = 107.0257
MEAN_ANOMALY   = 167.8945

EPHEMERIS_TYPE = 0
CLASSIFICATION_TYPE = U
NORAD_CAT_ID   = 68227
ELEMENT_SET_NO = 999
REV_AT_EPOCH   = 262
BSTAR          = -.69397575E-2
MEAN_MOTION_DOT = -.2106131E-1
MEAN_MOTION_DDOT = .11847426E-2

CCSDS_OMM_VERS = 2.0
CREATION_DATE  = 
ORIGINATOR     = 

OBJECT_NAME    = STARLINK-37050
OBJECT_ID      = 2026-053X
CENTER_NAME    = EARTH
REF_FRAME      = TEME
TIME_SYSTEM    = UTC
MEAN_ELEMENT_THEORY = SGP/SGP4

EPOCH          = 2026-03-25T22:00:00.999936
MEAN_MOTION    = 15.90884424
ECCENTRICITY   = .0001554
INCLINATION    = 97.2767
RA_OF_ASC_NODE = 319.9503
ARG_OF_PERICENTER = 103.6145
MEAN_ANOMALY   = 177.6444

EPHEMERIS_TYPE = 0
CLASSIFICATION_TYPE = U
NORAD_CAT_ID   = 68228
ELEMENT_SET_NO = 999
REV_AT_EPOCH   = 260
BSTAR          = -.6876746E-2
MEAN_MOTION_DOT = -.2116468E-1
MEAN_MOTION_DDOT = .11991877E-2

CCSDS_OMM_VERS = 2.0
CREATION_DATE  = 
ORIGINATOR     = 

OBJECT_NAME    = STARLINK-37081
OBJECT_ID      = 2026-053Y
CENTER_NAME    = EARTH
REF_FRAME      = TEME
TIME_SYSTEM    = UTC
MEAN_ELEMENT_THEORY = SGP/SGP4

EPOCH          = 2026-03-25T22:00:00.999936
MEAN_MOTION    = 15.91309711
ECCENTRICITY   = .00015432
INCLINATION    = 97.2761
RA_OF_ASC_NODE = 319.9539
ARG_OF_PERICENTER = 109.3544
MEAN_ANOMALY   = 180.9634

EPHEMERIS_TYPE = 0
CLASSIFICATION_TYPE = U
NORAD_CAT_ID   = 68229
ELEMENT_SET_NO = 999
REV_AT_EPOCH   = 262
BSTAR          = -.67171111E-2
MEAN_MOTION_DOT = -.2112531E-1
MEAN_MOTION_DDOT = .12002361E-2

CCSDS_OMM_VERS = 2.0
CREATION_DATE  = 
ORIGINATOR     = 

OBJECT_NAME    = STARLINK-37100
OBJECT_ID      = 2026-053Z
CENTER_NAME    = EARTH
REF_FRAME      = TEME
TIME_SYSTEM    = UTC
MEAN_ELEMENT_THEORY = SGP/SGP4

EPOCH          = 2026-03-25T22:00:00.999936
MEAN_MOTION    = 15.91028857
ECCENTRICITY   = .00014567
INCLINATION    = 97.2765
RA_OF_ASC_NODE = 319.9517
ARG_OF_PERICENTER = 102.6911
MEAN_ANOMALY   = 181.4275

EPHEMERIS_TYPE = 0
CLASSIFICATION_TYPE = U
NORAD_CAT_ID   = 68230
ELEMENT_SET_NO = 999
REV_AT_EPOCH   = 262
BSTAR          = -.67645123E-2
MEAN_MOTION_DOT = -.2097421E-1
MEAN_MOTION_DDOT = .11806168E-2

CCSDS_OMM_VERS = 2.0
CREATION_DATE  = 
ORIGINATOR     = 

OBJECT_NAME    = STARLINK-37104
OBJECT_ID      = 2026-053AA
CENTER_NAME    = EARTH
REF_FRAME      = TEME
TIME_SYSTEM    = UTC
MEAN_ELEMENT_THEORY = SGP/SGP4

EPOCH          = 2026-03-25T22:00:00.999936
MEAN_MOTION    = 15.91170545
ECCENTRICITY   = .00015991
INCLINATION    = 97.2762
RA_OF_ASC_NODE = 319.9529
ARG_OF_PERICENTER = 109.4518
MEAN_ANOMALY   = 177.7938

EPHEMERIS_TYPE = 0
CLASSIFICATION_TYPE = U
NORAD_CAT_ID   = 68231
ELEMENT_SET_NO = 999
REV_AT_EPOCH   = 262
BSTAR          = -.67633843E-2
MEAN_MOTION_DOT = -.2112096E-1
MEAN_MOTION_DDOT = .11980386E-2

CCSDS_OMM_VERS = 2.0
CREATION_DATE  = 
ORIGINATOR     = 

OBJECT_NAME    = STARLINK-37027
OBJECT_ID      = 2026-054A
CENTER_NAME    = EARTH
REF_FRAME      = TEME
TIME_SYSTEM    = UTC
MEAN_ELEMENT_THEORY = SGP/SGP4

EPOCH          = 2026-03-25T22:00:00.999936
MEAN_MOTION    = 15.80851922
ECCENTRICITY   = .00007374
INCLINATION    = 53.1594
RA_OF_ASC_NODE = 231.3530
ARG_OF_PERICENTER = 72.8829
MEAN_ANOMALY   = 157.0014

EPHEMERIS_TYPE = 0
CLASSIFICATION_TYPE = U
NORAD_CAT_ID   = 68232
ELEMENT_SET_NO = 999
REV_AT_EPOCH   = 252
BSTAR          = .24797323E-3
MEAN_MOTION_DOT = .4847E-3
MEAN_MOTION_DDOT = 0

CCSDS_OMM_VERS = 2.0
CREATION_DATE  = 
ORIGINATOR     = 

OBJECT_NAME    = STARLINK-37132
OBJECT_ID      = 2026-054B
CENTER_NAME    = EARTH
REF_FRAME      = TEME
TIME_SYSTEM    = UTC
MEAN_ELEMENT_THEORY = SGP/SGP4

EPOCH          = 2026-03-25T22:00:00.999936
MEAN_MOTION    = 15.80923095
ECCENTRICITY   = .00010633
INCLINATION    = 53.1594
RA_OF_ASC_NODE = 231.3439
ARG_OF_PERICENTER = 81.4580
MEAN_ANOMALY   = 152.6653

EPHEMERIS_TYPE = 0
CLASSIFICATION_TYPE = U
NORAD_CAT_ID   = 68233
ELEMENT_SET_NO = 999
REV_AT_EPOCH   = 260
BSTAR          = -.41020135E-3
MEAN_MOTION_DOT = -.8109E-3
MEAN_MOTION_DDOT = 0

